NORAD_CAT_ID,OBJECT_NAME,OBJECT_TYPE,EPOCH,MEAN_MOTION,ECCENTRICITY,INCLINATION,RA_OF_ASC_NODE,ARG_OF_PERICENTER,MEAN_ANOMALY,BSTAR,MEAN_MOTION_DOT,MEAN_MOTION_DDOT,TLE_LINE0,TLE_LINE1,TLE_LINE2,SEMIMAJOR_AXIS,PERIOD,APOGEE,PERIGEE,DECAYED
53991.0,STARLINK-5118,PAYLOAD,2022-11-18 04:00:00,15.73210054,0.0001823,53.2159,237.1027,37.2148,39.59,0.00064744,0.00091278,0.0,0 STARLINK-5118,1 53991U 22125AD  22322.16667824  .00091278  00000-0  64744-3 0  9995,2 53991  53.2159 237.1027 0001823  37.2148  39.5900 15.73210054  7208,6727.8669999999975,91.533,350.958,348.505,0.0
53991.0,STARLINK-5118,PAYLOAD,2022-11-18 14:00:01,15.73247858,0.0001431999999999,53.2156,235.0386,36.4829,241.5492,-0.0005419,-0.00076143,0.0,0 STARLINK-5118,1 53991U 22125AD  22322.58334491 -.00076143  00000-0 -54190-3 0  9992,2 53991  53.2156 235.0386 0001432  36.4829 241.5492 15.73247858  7262,6727.759,91.53,350.587,348.66,0.0
53991.0,STARLINK-5118,PAYLOAD,2022-11-18 22:00:00,15.73086539,0.0001269,53.2169,233.3808,42.3775,324.6435,-0.0011683,-0.00160707,0.0,0 STARLINK-5118,1 53991U 22125AD  22322.91667824 -.00160707  00000-0 -11683-2 0  9997,2 53991  53.2169 233.3808 0001269  42.3775 324.6435 15.73086539  1306,6728.219,91.54,350.93699999999984,349.23,0.0
53991.0,STARLINK-5118,PAYLOAD,2022-11-19 06:00:00,15.73180896,0.0001699,53.216,231.7413,35.3605,60.5641,-3.9065e-05,-6.095e-05,0.0,0 STARLINK-5118,1 53991U 22125AD  22323.25001157 -.00006095  00000-0 -39065-4 0  9991,2 53991  53.2160 231.7413 0001699  35.3605  60.5641 15.73180896  7371,6727.95,91.534,350.958,348.672,0.0
53991.0,STARLINK-5118,PAYLOAD,2022-11-19 14:00:01,15.73140564,0.000155,53.2163,230.0898,43.6179,141.2091,0.00070108,0.00098683,0.0,0 STARLINK-5118,1 53991U 22125AD  22323.58334491  .00098683  00000-0  70108-3 0  9991,2 53991  53.2163 230.0898 0001550  43.6179 141.2091 15.73140564  1308,6728.065,91.537,350.972,348.88699999999994,0.0
53991.0,STARLINK-5118,PAYLOAD,2022-11-19 22:00:00,15.73226457,0.0001624,53.2163,228.4416,41.9261,231.7907,-0.00061993,-0.00086832,0.0,0 STARLINK-5118,1 53991U 22125AD  22323.91667824 -.00086832  00000-0 -61993-3 0  9994,2 53991  53.2163 228.4416 0001624  41.9261 231.7907 15.73226457  1307,6727.82,91.532,350.777,348.592,0.0
53991.0,STARLINK-5118,PAYLOAD,2022-11-20 14:00:01,15.7312013,0.0001496999999999,53.2159,225.1416,47.4061,44.143,0.00063109,0.00088584,0.0,0 STARLINK-5118,1 53991U 22125AD  22324.58334491  .00088584  00000-0  63109-3 0  9994,2 53991  53.2159 225.1416 0001497  47.4061  44.1430 15.73120130  7587,6728.123000000001,91.538,350.995,348.981,0.0
53991.0,STARLINK-5118,PAYLOAD,2022-11-20 22:00:00,15.73179138,0.0001547,53.2162,223.4935,43.375,137.0459,-0.00029873,-0.00042298,0.0,0 STARLINK-5118,1 53991U 22125AD  22324.91667824 -.00042298  00000-0 -29873-3 0  9994,2 53991  53.2162 223.4935 0001547  43.3750 137.0459 15.73179138  7635,6727.955,91.534,350.86,348.779,0.0
53991.0,STARLINK-5118,PAYLOAD,2022-11-21 14:00:01,15.73165397,0.0001405,53.2164,220.1934,43.2244,314.9735,0.00070127,0.00098816,0.0,0 STARLINK-5118,1 53991U 22125AD  22325.58334491  .00098816  00000-0  70127-3 0  9992,2 53991  53.2164 220.1934 0001405  43.2244 314.9735 15.73165397  7736,6727.994000000002,91.535,350.80400000000014,348.914,0.0
53991.0,STARLINK-5118,PAYLOAD,2022-11-21 22:00:00,15.73278049,0.0001522,53.2164,218.5455,39.7201,47.402,-0.00050909,-0.00071701,0.0,0 STARLINK-5118,1 53991U 22125AD  22325.91667824 -.00071701  00000-0 -50909-3 0  9990,2 53991  53.2164 218.5455 0001522  39.7201  47.4020 15.73278049  1309,6727.6730000000025,91.529,350.56199999999984,348.514,0.0
53991.0,STARLINK-5118,PAYLOAD,2022-11-22 04:00:00,15.73201586,0.000154,53.2161,217.3091,34.5888,29.2943,0.00031046,0.00043178,0.0,0 STARLINK-5118,1 53991U 22125AD  22326.16667824  .00043178  00000-0  31046-3 0  9994,2 53991  53.2161 217.3091 0001540  34.5888  29.2943 15.73201586  7831,6727.891,91.533,350.792,348.72,0.0
53991.0,STARLINK-5118,PAYLOAD,2022-11-22 14:00:01,15.73196443,0.0001403,53.2158,215.2449,46.1113,219.0274,-0.00018972,-0.00027156,0.0,0 STARLINK-5118,1 53991U 22125AD  22326.58335648 -.00027156  00000-0 -18972-3 0  9999,2 53991  53.2158 215.2449 0001403  46.1113 219.0274 15.73196443  7896,6727.905,91.533,350.714,348.826,0.0
53991.0,STARLINK-5118,PAYLOAD,2022-11-22 22:00:00,15.73169015,0.0001686999999999,53.216,213.5972,50.07,303.9184,1.9551e-06,-3.46e-06,0.0,0 STARLINK-5118,1 53991U 22125AD  22326.91667824 -.00000346  00000-0  19551-5 0  9997,2 53991  53.2160 213.5972 0001687  50.0700 303.9184 15.73169015  1309,6727.984,91.535,350.9840000000001,348.714,0.0
53991.0,STARLINK-5118,PAYLOAD,2022-11-23 04:00:00,15.73147956,0.0001747,53.2158,212.3611,44.7895,285.8666,0.00066871,0.00094077,0.0,0 STARLINK-5118,1 53991U 22125AD  22327.16667824  .00094077  00000-0  66871-3 0  9993,2 53991  53.2158 212.3611 0001747  44.7895 285.8666 15.73147956  7988,6728.044,91.536,351.084,348.733,0.0
53991.0,STARLINK-5118,PAYLOAD,2022-11-23 12:00:02,15.73192031,0.0001522,53.2161,210.7095,50.2817,9.3454,0.00026439,0.00036635,0.0,0 STARLINK-5118,1 53991U 22125AD  22327.50002315  .00036635  00000-0  26439-3 0  9991,2 53991  53.2161 210.7095 0001522  50.2817   9.3454 15.73192031  8043,6727.918000000002,91.534,350.807,348.759,0.0
53991.0,STARLINK-5118,PAYLOAD,2022-11-23 14:00:01,15.73211883,0.0001506999999999,53.2159,210.2968,51.7248,120.0652,-1.916e-05,-3.3100000000000005e-05,0.0,0 STARLINK-5118,1 53991U 22125AD  22327.58334491 -.00003310  00000-0 -19160-4 0  9992,2 53991  53.2159 210.2968 0001507  51.7248 120.0652 15.73211883  1301,6727.861,91.532,350.74,348.712,0.0
53991.0,STARLINK-5118,PAYLOAD,2022-11-23 22:00:00,15.73187822,0.0001589,53.2158,208.6492,43.7899,216.9454,1.0537e-05,8.58e-06,0.0,0 STARLINK-5118,1 53991U 22125AD  22327.91667824  .00000858  00000-0  10537-4 0  9999,2 53991  53.2158 208.6492 0001589  43.7899 216.9454 15.73187822  8101,6727.93,91.534,350.86400000000015,348.726,0.0
53991.0,STARLINK-5118,PAYLOAD,2022-11-24 14:00:01,15.73232716,0.000149,53.2152,205.3485,53.2038,25.3948,-0.00019253,-0.0002759,0.0,0 STARLINK-5118,1 53991U 22125AD  22328.58334491 -.00027590  00000-0 -19253-3 0  9991,2 53991  53.2152 205.3485 0001490  53.2038  25.3948 15.73232716  8218,6727.802,91.531,350.6690000000001,348.664,0.0
53991.0,STARLINK-5118,PAYLOAD,2022-11-24 22:00:00,15.73203166,0.0001713,53.2151,203.7008,51.0848,116.4751,0.00018171,0.00024961,0.0,0 STARLINK-5118,1 53991U 22125AD  22328.91667824  .00024961  00000-0  18171-3 0  9992,2 53991  53.2151 203.7008 0001713  51.0848 116.4751 15.73203166  1307,6727.886,91.533,350.904,348.599,0.0
53991.0,STARLINK-5118,PAYLOAD,2022-11-25 06:00:00,15.73267465,0.0001604,53.215,202.0511,46.346,210.1468,-0.00059853,-0.0008402999999999,0.0,0 STARLINK-5118,1 53991U 22125AD  22329.25001157 -.00084030  00000-0 -59853-3 0  9998,2 53991  53.2150 202.0511 0001604  46.3460 210.1468 15.73267465  8310,6727.703,91.529,350.647,348.48900000000015,0.0
53991.0,STARLINK-5118,PAYLOAD,2022-11-25 14:00:01,15.73183537,0.0001413,53.2153,200.3997,50.1474,295.324,0.00063727,0.00089714,0.0,0 STARLINK-5118,1 53991U 22125AD  22329.58334491  .00089714  00000-0  63727-3 0  9991,2 53991  53.2153 200.3997 0001413  50.1474 295.3240 15.73183537  1300,6727.941999999999,91.534,350.7580000000001,348.856,0.0
53991.0,STARLINK-5118,PAYLOAD,2022-11-25 20:00:01,15.73283274,0.0001467,53.2153,199.164,45.5023,276.66900000000004,-0.00055343,-0.00077853,0.0,0 STARLINK-5118,1 53991U 22125AD  22329.83334491 -.00077853  00000-0 -55343-3 0  9997,2 53991  53.2153 199.1640 0001467  45.5023 276.6690 15.73283274  8405,6727.658,91.528,350.51,348.536,0.0
53991.0,STARLINK-5118,PAYLOAD,2022-11-25 22:00:00,15.73271615,0.0001529,53.2151,198.7522,42.8889,31.5348,-0.00050193,-0.00070691,0.0,0 STARLINK-5118,1 53991U 22125AD  22329.91667824 -.00070691  00000-0 -50193-3 0  9996,2 53991  53.2151 198.7522 0001529  42.8889  31.5348 15.73271615  1302,6727.691,91.529,350.585,348.527,0.0
53991.0,STARLINK-5118,PAYLOAD,2022-11-26 12:00:00,15.73164886,0.0001357,53.2146,195.8636,49.5784,90.5614,0.00065801,0.00092611,0.0,0 STARLINK-5118,1 53991U 22125AD  22330.50001157  .00092611  00000-0  65801-3 0  9990,2 53991  53.2146 195.8636 0001357  49.5784  90.5614 15.73164886  8519,6727.995,91.535,350.773,348.94699999999995,0.0
53991.0,STARLINK-5118,PAYLOAD,2022-11-26 14:00:01,15.73191196,0.0001366,53.2148,195.451,52.2805,200.0812,0.00043868,0.00061374,0.0,0 STARLINK-5118,1 53991U 22125AD  22330.58334491  .00061374  00000-0  43868-3 0  9999,2 53991  53.2148 195.4510 0001366  52.2805 200.0812 15.73191196  1305,6727.92,91.534,350.704,348.866,0.0
53991.0,STARLINK-5118,PAYLOAD,2022-11-26 22:00:00,15.73242326,0.0001498,53.2148,193.8035,44.1816,297.1288,-0.00086907,-0.00121071,0.0,0 STARLINK-5118,1 53991U 22125AD  22330.91667824 -.00121071  00000-0 -86907-3 0  9999,2 53991  53.2148 193.8035 0001498  44.1816 297.1288 15.73242326  8579,6727.775,91.531,350.647,348.63199999999995,0.0
53991.0,STARLINK-5118,PAYLOAD,2022-11-27 06:00:00,15.7316771,0.0001528,53.2149,192.1534,44.4234,25.8111,2.0572e-05,2.264e-05,0.0,0 STARLINK-5118,1 53991U 22125AD  22331.25001157  .00002264  00000-0  20572-4 0  9995,2 53991  53.2149 192.1534 0001528  44.4234  25.8111 15.73167710  8638,6727.986999999999,91.535,350.88,348.824,0.0
53991.0,STARLINK-5118,PAYLOAD,2022-11-27 14:00:01,15.73158731,0.0001425,53.2155,190.4988,53.4479,105.6722,0.00059832,0.00084045,0.0,0 STARLINK-5118,1 53991U 22125AD  22331.58334491  .00084045  00000-0  59832-3 0  9998,2 53991  53.2155 190.4988 0001425  53.4479 105.6722 15.73158731  1301,6728.013000000001,91.536,350.837,348.9190000000001,0.0
53991.0,STARLINK-5118,PAYLOAD,2022-11-27 22:00:00,15.73271589,0.0001372,53.2167,188.8449,54.5059,193.5316,-0.0038119,-0.0050618,0.0,0 STARLINK-5118,1 53991U 22125AD  22331.91667824 -.00506180  00000-0 -38119-2 0  9999,2 53991  53.2167 188.8449 0001372  54.5059 193.5316 15.73271589  8730,6727.691,91.529,350.47900000000016,348.6330000000001,0.0
